{"fetched_at":"2026-03-30T13:17:50Z","count":15418,"tles":[{"name":"STARLINK-34064","line1":"1 64114U 25110U   26087.84104149  .00021740  00000+0  74384-3 0  9991","line2":"2 64114  53.1620 297.8764 0000985  79.3590 280.7522 15.30206386 48814","category":"Starlink"}]}